IRIDIUM 39              
1 25042U 97069D   25304.62688711  .00000700  00000+0  17740-3 0  9995
2 25042  86.3924 152.6926 0016645 204.9441 155.0960 14.49412650468723
IRIDIUM 38              
1 25043U 97069E   25304.60881833  .00000557  00000+0  17669-3 0  9994
2 25043  86.4006 175.8183 0003233  49.5342 310.6138 14.38256673465564
IRIDIUM 42              
1 25077U 97077A   25304.64354950  .00000509  00000+0  16697-3 0  9996
2 25077  86.4018 182.1347 0002658  70.8287 289.3197 14.36483374460786
IRIDIUM 44              
1 25078U 97077B   25304.64637836  .00000548  00000+0  16669-3 0  9996
2 25078  86.3989 163.7173 0001188  24.1713 335.9542 14.40378176463343
IRIDIUM 45              
1 25104U 97082A   25304.61494067  .00030490  00000+0  93015-3 0  9995
2 25104  86.3576 341.3911 0104190 177.0000 183.1898 15.28505704472830
IRIDIUM 24              
1 25105U 97082B   25304.65103030  .00000684  00000+0  20125-3 0  9991
2 25105  86.3951  22.4012 0010933 358.1976   1.9183 14.42267103462883
IRIDIUM 51              
1 25262U 98018A   25304.56078332  .00074422  00000+0  10550-2 0  9992
2 25262  86.3798 347.7449 0066661  82.9651 277.9186 15.53555028468089
IRIDIUM 57              
1 25273U 98019B   25304.68497545  .00000561  00000+0  18646-3 0  9997
2 25273  86.3924  88.0293 0002051  87.9117 272.2315 14.35999582444373
